33064,ORBCOMM FM37,2008,97.53,-1.0,-,48.44,Inactive,0,LEO,Russia,ORBCOMM,Unknown,Unknown,Unknown,1 33064U 08031E   24145.94487031  .00003166  00000+0  47834-3 0  9994,2 33064  48.4411  24.8854 0005869 157.5757 216.4672 14.76548164856616,14.76548164,0.0005869,LEO
37840,VESSELSAT 1,2011,102.04,-1.0,-,19.96,Inactive,0,LEO,India,Luxembourg,Unknown,Unknown,Unknown,1 37840U 11058C   24146.56275809  .00000465  00000+0  10956-3 0  9994,2 37840  19.9627 279.0602 0013592 243.3314 116.5698 14.11159704651487,14.11159704,0.0013592,LEO
40088,ORBCOMM FM106,2014,98.15,-1.0,-,47.06,Inactive,0,LEO,USA,ORBCOMM,Unknown,Unknown,Unknown,1 40088U 14040C   24146.58377261  .00002152  00000+0  41095-3 0  9996,2 40088  47.0600 257.8626 0016803  66.5242 293.7412 14.67119238526517,14.67119238,0.0016803,LEO
40089,ORBCOMM FM111,2014,97.17,-1.0,-,47.0,Inactive,0,LEO,USA,ORBCOMM,Unknown,Unknown,Unknown,1 40089U 14040D   24146.32790992  .00002452  00000+0  33016-3 0  9996,2 40089  47.0022 158.3425 0031896 141.0160 219.3042 14.81901758532618,14.81901758,0.0031896,LEO
40090,ORBCOMM FM104,2014,98.96,-1.0,-,47.0,Inactive,0,LEO,USA,ORBCOMM,Unknown,Unknown,Unknown,1 40090U 14040E   24146.06846477  .00001326  00000+0  34172-3 0  9992,2 40090  47.0049  77.3457 0017404 234.1024 125.8245 14.55180900524061,14.551809,0.0017404,LEO
40086,ORBCOMM FM109,2014,98.86,172.0,+,47.0,Active,1,LEO,USA,ORBCOMM,Commercial,Communications,Falcon,1 40086U 14040A   24146.59720722  .00001784  00000+0  43308-3 0  9998,2 40086  47.0041  44.8141 0002219 323.3357  36.7376 14.56673841524523,14.56673841,0.0002219,LEO
40087,ORBCOMM FM107,2014,98.86,172.0,+,47.01,Active,1,LEO,USA,ORBCOMM,Commercial,Communications,Falcon,1 40087U 14040B   24146.01404166  .00002038  00000+0  48917-3 0  9991,2 40087  47.0058  48.5289 0001928 292.6567  67.4114 14.56683315524510,14.56683315,0.0001928,LEO
