<?xml version="1.0" encoding="UTF-8"?>
<ndm xmlns:xsi="http://www.w3.org/2001/XMLSchema-instance" xsi:noNamespaceSchemaLocation="https://sanaregistry.org/r/ndmxml_unqualified/ndmxml-2.0.0-master-2.0.xsd">
<omm id="CCSDS_OMM_VERS" version="2.0">
<header><CREATION_DATE/><ORIGINATOR/></header><body><segment><metadata><OBJECT_NAME>ORBCOMM FM37</OBJECT_NAME><OBJECT_ID>2008-031E</OBJECT_ID><CENTER_NAME>EARTH</CENTER_NAME><REF_FRAME>TEME</REF_FRAME><TIME_SYSTEM>UTC</TIME_SYSTEM><MEAN_ELEMENT_THEORY>SGP4</MEAN_ELEMENT_THEORY></metadata><data><meanElements><EPOCH>2024-05-24T22:40:36.794784</EPOCH><MEAN_MOTION>14.76548164</MEAN_MOTION><ECCENTRICITY>.0005869</ECCENTRICITY><INCLINATION>48.4411</INCLINATION><RA_OF_ASC_NODE>24.8854</RA_OF_ASC_NODE><ARG_OF_PERICENTER>157.5757</ARG_OF_PERICENTER><MEAN_ANOMALY>216.4672</MEAN_ANOMALY></meanElements><tleParameters><EPHEMERIS_TYPE>0</EPHEMERIS_TYPE><CLASSIFICATION_TYPE>U</CLASSIFICATION_TYPE><NORAD_CAT_ID>33064</NORAD_CAT_ID><ELEMENT_SET_NO>999</ELEMENT_SET_NO><REV_AT_EPOCH>85661</REV_AT_EPOCH><BSTAR>.47834E-3</BSTAR><MEAN_MOTION_DOT>.3166E-4</MEAN_MOTION_DOT><MEAN_MOTION_DDOT>0</MEAN_MOTION_DDOT></tleParameters></data></segment></body></omm>
<omm id="CCSDS_OMM_VERS" version="2.0">
<header><CREATION_DATE/><ORIGINATOR/></header><body><segment><metadata><OBJECT_NAME>VESSELSAT 1</OBJECT_NAME><OBJECT_ID>2011-058C</OBJECT_ID><CENTER_NAME>EARTH</CENTER_NAME><REF_FRAME>TEME</REF_FRAME><TIME_SYSTEM>UTC</TIME_SYSTEM><MEAN_ELEMENT_THEORY>SGP4</MEAN_ELEMENT_THEORY></metadata><data><meanElements><EPOCH>2024-05-25T13:30:22.298976</EPOCH><MEAN_MOTION>14.11159704</MEAN_MOTION><ECCENTRICITY>.0013592</ECCENTRICITY><INCLINATION>19.9627</INCLINATION><RA_OF_ASC_NODE>279.0602</RA_OF_ASC_NODE><ARG_OF_PERICENTER>243.3314</ARG_OF_PERICENTER><MEAN_ANOMALY>116.5698</MEAN_ANOMALY></meanElements><tleParameters><EPHEMERIS_TYPE>0</EPHEMERIS_TYPE><CLASSIFICATION_TYPE>U</CLASSIFICATION_TYPE><NORAD_CAT_ID>37840</NORAD_CAT_ID><ELEMENT_SET_NO>999</ELEMENT_SET_NO><REV_AT_EPOCH>65148</REV_AT_EPOCH><BSTAR>.10956E-3</BSTAR><MEAN_MOTION_DOT>.465E-5</MEAN_MOTION_DOT><MEAN_MOTION_DDOT>0</MEAN_MOTION_DDOT></tleParameters></data></segment></body></omm>
<omm id="CCSDS_OMM_VERS" version="2.0">
<header><CREATION_DATE/><ORIGINATOR/></header><body><segment><metadata><OBJECT_NAME>ORBCOMM FM109</OBJECT_NAME><OBJECT_ID>2014-040A</OBJECT_ID><CENTER_NAME>EARTH</CENTER_NAME><REF_FRAME>TEME</REF_FRAME><TIME_SYSTEM>UTC</TIME_SYSTEM><MEAN_ELEMENT_THEORY>SGP4</MEAN_ELEMENT_THEORY></metadata><data><meanElements><EPOCH>2024-05-25T14:19:58.703808</EPOCH><MEAN_MOTION>14.56673841</MEAN_MOTION><ECCENTRICITY>.0002219</ECCENTRICITY><INCLINATION>47.0041</INCLINATION><RA_OF_ASC_NODE>44.8141</RA_OF_ASC_NODE><ARG_OF_PERICENTER>323.3357</ARG_OF_PERICENTER><MEAN_ANOMALY>36.7376</MEAN_ANOMALY></meanElements><tleParameters><EPHEMERIS_TYPE>0</EPHEMERIS_TYPE><CLASSIFICATION_TYPE>U</CLASSIFICATION_TYPE><NORAD_CAT_ID>40086</NORAD_CAT_ID><ELEMENT_SET_NO>999</ELEMENT_SET_NO><REV_AT_EPOCH>52452</REV_AT_EPOCH><BSTAR>.43308E-3</BSTAR><MEAN_MOTION_DOT>.1784E-4</MEAN_MOTION_DOT><MEAN_MOTION_DDOT>0</MEAN_MOTION_DDOT></tleParameters></data></segment></body></omm>
<omm id="CCSDS_OMM_VERS" version="2.0">
<header><CREATION_DATE/><ORIGINATOR/></header><body><segment><metadata><OBJECT_NAME>ORBCOMM FM107</OBJECT_NAME><OBJECT_ID>2014-040B</OBJECT_ID><CENTER_NAME>EARTH</CENTER_NAME><REF_FRAME>TEME</REF_FRAME><TIME_SYSTEM>UTC</TIME_SYSTEM><MEAN_ELEMENT_THEORY>SGP4</MEAN_ELEMENT_THEORY></metadata><data><meanElements><EPOCH>2024-05-25T00:20:13.199424</EPOCH><MEAN_MOTION>14.56683315</MEAN_MOTION><ECCENTRICITY>.0001928</ECCENTRICITY><INCLINATION>47.0058</INCLINATION><RA_OF_ASC_NODE>48.5289</RA_OF_ASC_NODE><ARG_OF_PERICENTER>292.6567</ARG_OF_PERICENTER><MEAN_ANOMALY>67.4114</MEAN_ANOMALY></meanElements><tleParameters><EPHEMERIS_TYPE>0</EPHEMERIS_TYPE><CLASSIFICATION_TYPE>U</CLASSIFICATION_TYPE><NORAD_CAT_ID>40087</NORAD_CAT_ID><ELEMENT_SET_NO>999</ELEMENT_SET_NO><REV_AT_EPOCH>52451</REV_AT_EPOCH><BSTAR>.48917E-3</BSTAR><MEAN_MOTION_DOT>.2038E-4</MEAN_MOTION_DOT><MEAN_MOTION_DDOT>0</MEAN_MOTION_DDOT></tleParameters></data></segment></body></omm>
<omm id="CCSDS_OMM_VERS" version="2.0">
<header><CREATION_DATE/><ORIGINATOR/></header><body><segment><metadata><OBJECT_NAME>ORBCOMM FM106</OBJECT_NAME><OBJECT_ID>2014-040C</OBJECT_ID><CENTER_NAME>EARTH</CENTER_NAME><REF_FRAME>TEME</REF_FRAME><TIME_SYSTEM>UTC</TIME_SYSTEM><MEAN_ELEMENT_THEORY>SGP4</MEAN_ELEMENT_THEORY></metadata><data><meanElements><EPOCH>2024-05-25T14:00:37.953504</EPOCH><MEAN_MOTION>14.67119238</MEAN_MOTION><ECCENTRICITY>.0016803</ECCENTRICITY><INCLINATION>47.0600</INCLINATION><RA_OF_ASC_NODE>257.8626</RA_OF_ASC_NODE><ARG_OF_PERICENTER>66.5242</ARG_OF_PERICENTER><MEAN_ANOMALY>293.7412</MEAN_ANOMALY></meanElements><tleParameters><EPHEMERIS_TYPE>0</EPHEMERIS_TYPE><CLASSIFICATION_TYPE>U</CLASSIFICATION_TYPE><NORAD_CAT_ID>40088</NORAD_CAT_ID><ELEMENT_SET_NO>999</ELEMENT_SET_NO><REV_AT_EPOCH>52651</REV_AT_EPOCH><BSTAR>.41095E-3</BSTAR><MEAN_MOTION_DOT>.2152E-4</MEAN_MOTION_DOT><MEAN_MOTION_DDOT>0</MEAN_MOTION_DDOT></tleParameters></data></segment></body></omm>
<omm id="CCSDS_OMM_VERS" version="2.0">
<header><CREATION_DATE/><ORIGINATOR/></header><body><segment><metadata><OBJECT_NAME>ORBCOMM FM111</OBJECT_NAME><OBJECT_ID>2014-040D</OBJECT_ID><CENTER_NAME>EARTH</CENTER_NAME><REF_FRAME>TEME</REF_FRAME><TIME_SYSTEM>UTC</TIME_SYSTEM><MEAN_ELEMENT_THEORY>SGP4</MEAN_ELEMENT_THEORY></metadata><data><meanElements><EPOCH>2024-05-25T07:52:11.417088</EPOCH><MEAN_MOTION>14.81901758</MEAN_MOTION><ECCENTRICITY>.0031896</ECCENTRICITY><INCLINATION>47.0022</INCLINATION><RA_OF_ASC_NODE>158.3425</RA_OF_ASC_NODE><ARG_OF_PERICENTER>141.0160</ARG_OF_PERICENTER><MEAN_ANOMALY>219.3042</MEAN_ANOMALY></meanElements><tleParameters><EPHEMERIS_TYPE>0</EPHEMERIS_TYPE><CLASSIFICATION_TYPE>U</CLASSIFICATION_TYPE><NORAD_CAT_ID>40089</NORAD_CAT_ID><ELEMENT_SET_NO>999</ELEMENT_SET_NO><REV_AT_EPOCH>53261</REV_AT_EPOCH><BSTAR>.33016E-3</BSTAR><MEAN_MOTION_DOT>.2452E-4</MEAN_MOTION_DOT><MEAN_MOTION_DDOT>0</MEAN_MOTION_DDOT></tleParameters></data></segment></body></omm>
<omm id="CCSDS_OMM_VERS" version="2.0">
<header><CREATION_DATE/><ORIGINATOR/></header><body><segment><metadata><OBJECT_NAME>ORBCOMM FM104</OBJECT_NAME><OBJECT_ID>2014-040E</OBJECT_ID><CENTER_NAME>EARTH</CENTER_NAME><REF_FRAME>TEME</REF_FRAME><TIME_SYSTEM>UTC</TIME_SYSTEM><MEAN_ELEMENT_THEORY>SGP4</MEAN_ELEMENT_THEORY></metadata><data><meanElements><EPOCH>2024-05-25T01:38:35.356128</EPOCH><MEAN_MOTION>14.55180900</MEAN_MOTION><ECCENTRICITY>.0017404</ECCENTRICITY><INCLINATION>47.0049</INCLINATION><RA_OF_ASC_NODE>77.3457</RA_OF_ASC_NODE><ARG_OF_PERICENTER>234.1024</ARG_OF_PERICENTER><MEAN_ANOMALY>125.8245</MEAN_ANOMALY></meanElements><tleParameters><EPHEMERIS_TYPE>0</EPHEMERIS_TYPE><CLASSIFICATION_TYPE>U</CLASSIFICATION_TYPE><NORAD_CAT_ID>40090</NORAD_CAT_ID><ELEMENT_SET_NO>999</ELEMENT_SET_NO><REV_AT_EPOCH>52406</REV_AT_EPOCH><BSTAR>.34172E-3</BSTAR><MEAN_MOTION_DOT>.1326E-4</MEAN_MOTION_DOT><MEAN_MOTION_DDOT>0</MEAN_MOTION_DDOT></tleParameters></data></segment></body></omm>

</ndm>
